STARLINK-5824           
1 57067U 23088V   24315.45986718  .00001554  00000+0  13003-3 0  9993
2 57067  43.0009 218.2432 0001085 263.3247  96.7471 15.02548893 76637
STARLINK-5844           
1 57068U 23088W   24314.79731207  .00003739  00000+0  29169-3 0  9998
2 57068  43.0070 221.8731 0001665 263.7540  96.3113 15.02543691 77431
STARLINK-5821           
1 57069U 23088X   24314.45197772  .00004703  00000+0  36286-3 0  9995
2 57069  43.0017 211.4306 0001006 277.1838  82.8890 15.02548441 77355
STARLINK-5828           
1 57070U 23088Y   24314.40325354  .00001856  00000+0  15237-3 0  9990
2 57070  43.0022 211.9309 0001249 264.2071  95.8629 15.02548256 77512
STARLINK-5834           
1 57071U 23088Z   24315.05805567  .00005664  00000+0  43392-3 0  9996
2 57071  43.0007 208.2395 0001350 262.3638  97.7051 15.02547040 76419
STARLINK-5843           
1 57072U 23088AA  24315.06360518  .00007939  00000+0  60220-3 0  9996
2 57072  43.0022 208.2852 0001405 272.1807  87.8874 15.02529663 76710
STARLINK-5838           
1 57073U 23088AB  24315.06692904  .00001873  00000+0  15369-3 0  9999
2 57073  43.0026 208.3098 0001362 283.1327  76.9363 15.02543106 76719
STARLINK-5773           
1 57074U 23088AC  24315.45875757  .00001939  00000+0  15858-3 0  9998
2 57074  43.0019 218.2346 0001627 288.5505  71.5161 15.02540702 76636
STARLINK-5542           
1 57075U 23088AD  24315.11230839  .00000992  00000+0  88436-4 0  9999
2 57075  43.0044 207.7845 0001217 269.0302  91.0401 15.02549121 76724
STARLINK-6155           
1 57076U 23088AE  24315.06137598  .00002951  00000+0  23334-3 0  9994
2 57076  43.0007 208.2660 0001476 247.8889 112.1797 15.02548261 76712
STARLINK-6194           
1 57077U 23088AF  24315.11785865  .00002167  00000+0  17541-3 0  9999
2 57077  43.0040 207.8270 0000955 265.4750  94.5983 15.02547528 76722
STARLINK-6246           
1 57078U 23088AG  24314.72786967  .00001125  00000+0  98326-4 0  9994
2 57078  43.0029 210.0643 0000673 280.6855  79.3911 15.02540817 77392
STARLINK-6245           
1 57079U 23088AH  24315.10675795  .00013133  00000+0  98454-3 0  9997
2 57079  43.0001 207.7475 0001257 257.9062 102.1639 15.02571778 76712
STARLINK-6243           
1 57080U 23088AJ  24314.98822646  .00010204  00000+0  76867-3 0  9993
2 57080  43.0016 208.5764 0001641 271.5387  88.5267 15.02567637 76699
STARLINK-6184           
1 57081U 23088AK  24315.43582383 -.00001310  00000+0 -81906-4 0  9997
2 57081  43.0016 205.9099 0000917 302.1412  57.9341 15.02543753 76761
STARLINK-6248           
1 57082U 23088AL  24314.44532144  .00002055  00000+0  16712-3 0  9995
2 57082  43.0051 211.3770 0002081 253.6240 106.4374 15.02549431 77521
STARLINK-6253           
1 57083U 23088AM  24314.76327487  .00005108  00000+0  39299-3 0  9990
2 57083  43.0001 209.4597 0001732 270.5442  89.5202 15.02531451 77575
STARLINK-6240           
1 57084U 23088AN  24315.10454788  .00010244  00000+0  77206-3 0  9992
2 57084  43.0009 207.7272 0001600 264.1543  95.9117 15.02547044 76716
STARLINK-6232           
1 57085U 23088AP  24315.42362054  .00002408  00000+0  19339-3 0  9998
2 57085  43.0030 205.8199 0001110 256.2304 103.8415 15.02515996 76767
STARLINK-6247           
1 57086U 23088AQ  24315.43361713  .00000193  00000+0  29334-4 0  9997
2 57086  43.0007 205.8933 0000571  21.6838 338.4028 15.02529472 76764
STARLINK-6251           
1 57087U 23088AR  24315.42028836  .00000398  00000+0  44518-4 0  9991
2 57087  43.0035 205.7917 0001125 269.1998  90.8715 15.02537499 76769
STARLINK-6257           
1 57088U 23088AS  24315.43027915 -.00000332  00000+0 -94840-5 0  9994
2 57088  43.0050 205.8696 0001454 287.8223  72.2461 15.02533852 76766
STARLINK-6259           
1 57089U 23088AT  24315.41029703  .00001408  00000+0  11926-3 0  9995
2 57089  43.0043 205.7215 0001336 273.3359  86.7330 15.02542672 76769
STARLINK-6254           
1 57090U 23088AU  24315.41916672 -.00000004  00000+0  14779-4 0  9999
2 57090  43.0033 205.7852 0001404 269.8155  90.2527 15.02559153 76767
STARLINK-6262           
1 57091U 23088AV  24315.41362996 -.00002524  00000+0 -17187-3 0  9999
2 57091  43.0023 205.7431 0000835 283.9716  76.1033 15.02532355 76767
STARLINK-6225           
1 57092U 23088AW  24315.41584112  .00000864  00000+0  78989-4 0  9997
2 57092  43.0025 205.7611 0000998 309.6848  50.3906 15.02552801 76763
STARLINK-6229           
1 57093U 23088AX  24315.07456536  .00002537  00000+0  20275-3 0  9991
2 57093  43.0021 207.4988 0001132 282.8499  77.2217 15.02546389 76724
STARLINK-6235           
1 57094U 23088AY  24315.13993997  .00000094  00000+0  21991-4 0  9999
2 57094  43.0014 207.1291 0001151 280.2355  79.8358 15.02555230 76724
STARLINK-6132           
1 57101U 23090A   24315.49628810 -.00002015  00000+0 -13421-3 0  9994
2 57101  43.0050  26.0102 0002160 280.2371  79.8227 15.02504691 76439
STARLINK-6111           
1 57102U 23090B   24315.49072559 -.00005585  00000+0 -39891-3 0  9992
2 57102  43.0044  25.9691 0001679 271.9985  88.0665 15.02516430 76438
STARLINK-6123           
1 57103U 23090C   24315.58334491  .01271323  00000+0  71974-1 0  9999
2 57103  43.0040 359.2923 0001514 267.4856 294.3162 15.09510364 76757
STARLINK-6130           
1 57104U 23090D   24315.49294975  .00005671  00000+0  43446-3 0  9997
2 57104  43.0022  25.9861 0001339 267.0263  93.0426 15.02539989 76438
STARLINK-6097           
1 57105U 23090E   24315.48960589  .00000091  00000+0  21818-4 0  9999
2 57105  43.0055  25.9622 0001479 273.3001  86.7672 15.02540317 76434
STARLINK-6118           
1 57106U 23090F   24314.68632353  .00001597  00000+0  13327-3 0  9993
2 57106  43.0041  30.2541 0000711 298.9670  61.1101 15.02538125 77453
STARLINK-6131           
1 57107U 23090G   24315.47076437 -.00002291  00000+0 -15468-3 0  9999
2 57107  43.0043  25.8193 0001248 255.6132 104.4572 15.02503463 76435
STARLINK-6099           
1 57108U 23090H   24315.48625317 -.00014957  00000+0 -10924-2 0  9991
2 57108  43.0018  25.9350 0001111 245.5967 114.4759 15.02608658 76437
STARLINK-6139           
1 57109U 23090J   24315.47631355 -.00002954  00000+0 -20384-3 0  9996
2 57109  43.0037  25.8594 0000977 253.5734 106.5001 15.02506396 76436
STARLINK-6134           
1 57110U 23090K   24315.42091800  .00000734  00000+0  69360-4 0  9998
2 57110  43.0028  26.3027 0001206 292.4649  67.6065 15.02541658 76424
STARLINK-6140           
1 57111U 23090L   24315.46408594 -.00004517  00000+0 -31968-3 0  9992
2 57111  43.0014  25.7657 0000835 194.7290 165.3528 15.02515782 76435
STARLINK-6141           
1 57112U 23090M   24315.48074831 -.00001678  00000+0 -10923-3 0  9991
2 57112  43.0038  25.8921 0001333 274.7369  85.3321 15.02509916 76431
STARLINK-6142           
1 57113U 23090N   24315.46965276 -.00002997  00000+0 -20709-3 0  9990
2 57113  42.9963  25.8034 0000792 232.7343 127.3427 15.02507657 76430
STARLINK-6125           
1 57114U 23090P   24314.60208798  .00002177  00000+0  17617-3 0  9997
2 57114  43.0013  30.4741 0001129 249.1841 110.8880 15.02535833 77445
STARLINK-6085           
1 57115U 23090Q   24315.39427836 -.00004769  00000+0 -33841-3 0  9999
2 57115  43.0015  26.1019 0001458 266.5425  93.5250 15.02513669 76422
STARLINK-6129           
1 57116U 23090R   24315.47295323  .00000460  00000+0  49121-4 0  9994
2 57116  43.0065  25.8354 0001551 268.8789  91.1875 15.02549404 76432
STARLINK-6148           
1 57117U 23090S   24314.52672683  .00001728  00000+0  14297-3 0  9991
2 57117  43.0048  30.7726 0001394 268.0979  91.9704 15.02542325 76298
STARLINK-6151           
1 57118U 23090T   24315.46299123 -.00001452  00000+0 -92546-4 0  9990
2 57118  43.0034  25.7567 0001294 254.9450 105.1249 15.02504378 76432
STARLINK-6150           
1 57119U 23090U   24315.25354387  .00003325  00000+0  26106-3 0  9999
2 57119  43.0031  26.7623 0000297  90.0661 270.0215 15.02536475 76404
STARLINK-6147           
1 57120U 23090V   24314.92780747  .00000892  00000+0  81039-4 0  9990
2 57120  43.0033  28.6200 0001512 269.0113  91.0556 15.02551292 76358
STARLINK-6152           
1 57121U 23090W   24315.51057327  .00003226  00000+0  25368-3 0  9994
2 57121  43.0033  25.2542 0000740 265.2702  94.8056 15.02553175 76443
STARLINK-6149           
1 57122U 23090X   24315.25021374 -.00002137  00000+0 -14307-3 0  9992
2 57122  43.0058  26.7380 0001001 290.2271  69.8464 15.02556724 76401
STARLINK-6154           
1 57123U 23090Y   24315.50725135 -.00008183  00000+0 -59167-3 0  9997
2 57123  43.0055  25.2306 0001496 266.1418  93.9253 15.02517740 76447
STARLINK-6146           
1 57124U 23090Z   24315.51390307 -.00000130  00000+0  54376-5 0  9990
2 57124  43.0041  25.2776 0000561 317.7732  42.3067 15.02546858 76441
STARLINK-6100           
1 57125U 23090AA  24315.49319295 -.00000754  00000+0 -40764-4 0  9993
2 57125  43.0068  12.9644 0001869 259.3805 100.6827 15.02539663 76585
STARLINK-6167           
1 57126U 23090AB  24315.51278649  .00005620  00000+0  43053-3 0  9992
2 57126  43.0020  25.2701 0000407 348.6103  11.4730 15.02557304 76444
STARLINK-6165           
1 57127U 23090AC  24314.90449338  .00005202  00000+0  39960-3 0  9998
2 57127  43.0093  28.4461 0002444 282.3973  77.6596 15.02561027 76356
STARLINK-6163           
1 57128U 23090AD  24315.50946191  .00003936  00000+0  30614-3 0  9994
2 57128  43.0005  25.2401 0000437 267.6267  92.4526 15.02549959 76449
STARLINK-6170           
1 57129U 23090AE  24315.44115084 -.00000652  00000+0 -33207-4 0  9993
2 57129  43.0045  13.4344 0001541 248.9168 111.1510 15.02525682 76571
STARLINK-6172           
1 57130U 23090AF  24315.17152535 -.00003877  00000+0 -27188-3 0  9999
2 57130  43.0036  27.0096 0000740 281.8183  78.2577 15.02562688 76394
STARLINK-6162           
1 57131U 23090AG  24315.50317677  .00001661  00000+0  13798-3 0  9996
2 57131  43.0049  13.0374 0002514 249.1771 110.8802 15.02543865 76585
